CCSDS_OMM_VERS = 2.0
CREATION_DATE  = 
ORIGINATOR     = 

OBJECT_NAME    = SEASAT 1
OBJECT_ID      = 1978-064A
CENTER_NAME    = EARTH
REF_FRAME      = TEME
TIME_SYSTEM    = UTC
MEAN_ELEMENT_THEORY = SGP/SGP4

EPOCH          = 2026-02-14T01:07:04.122336
MEAN_MOTION    = 14.46141058
ECCENTRICITY   = .00016936
INCLINATION    = 108.0160
RA_OF_ASC_NODE = 75.8824
ARG_OF_PERICENTER = 292.5137
MEAN_ANOMALY   = 67.5830

EPHEMERIS_TYPE = 0
CLASSIFICATION_TYPE = U
NORAD_CAT_ID   = 10967
ELEMENT_SET_NO = 999
REV_AT_EPOCH   = 50309
BSTAR          = .11246975E-3
MEAN_MOTION_DOT = .265E-5
MEAN_MOTION_DDOT = 0

CCSDS_OMM_VERS = 2.0
CREATION_DATE  = 
ORIGINATOR     = 

OBJECT_NAME    = SL-14 R/B
OBJECT_ID      = 1979-011B
CENTER_NAME    = EARTH
REF_FRAME      = TEME
TIME_SYSTEM    = UTC
MEAN_ELEMENT_THEORY = SGP/SGP4

EPOCH          = 2026-02-14T05:45:26.816544
MEAN_MOTION    = 14.91879777
ECCENTRICITY   = .00172371
INCLINATION    = 82.5244
RA_OF_ASC_NODE = 118.8225
ARG_OF_PERICENTER = 132.3849
MEAN_ANOMALY   = 227.8834

EPHEMERIS_TYPE = 0
CLASSIFICATION_TYPE = U
NORAD_CAT_ID   = 11267
ELEMENT_SET_NO = 999
REV_AT_EPOCH   = 52528
BSTAR          = .6501E-4
MEAN_MOTION_DOT = .684E-5
MEAN_MOTION_DDOT = 0

CCSDS_OMM_VERS = 2.0
CREATION_DATE  = 
ORIGINATOR     = 

OBJECT_NAME    = SL-8 R/B
OBJECT_ID      = 1979-089B
CENTER_NAME    = EARTH
REF_FRAME      = TEME
TIME_SYSTEM    = UTC
MEAN_ELEMENT_THEORY = SGP/SGP4

EPOCH          = 2026-02-14T05:34:52.855680
MEAN_MOTION    = 14.42336131
ECCENTRICITY   = .00167261
INCLINATION    = 74.0695
RA_OF_ASC_NODE = 134.4653
ARG_OF_PERICENTER = 309.9496
MEAN_ANOMALY   = 50.0191

EPHEMERIS_TYPE = 0
CLASSIFICATION_TYPE = U
NORAD_CAT_ID   = 11574
ELEMENT_SET_NO = 999
REV_AT_EPOCH   = 43272
BSTAR          = .93137922E-4
MEAN_MOTION_DOT = .282E-5
MEAN_MOTION_DDOT = 0

CCSDS_OMM_VERS = 2.0
CREATION_DATE  = 
ORIGINATOR     = 

OBJECT_NAME    = SL-14 R/B
OBJECT_ID      = 1980-005B
CENTER_NAME    = EARTH
REF_FRAME      = TEME
TIME_SYSTEM    = UTC
MEAN_ELEMENT_THEORY = SGP/SGP4

EPOCH          = 2026-02-14T05:42:00.610848
MEAN_MOTION    = 14.90900010
ECCENTRICITY   = .00142446
INCLINATION    = 82.5174
RA_OF_ASC_NODE = 329.4762
ARG_OF_PERICENTER = 239.0218
MEAN_ANOMALY   = 120.9602

EPHEMERIS_TYPE = 0
CLASSIFICATION_TYPE = U
NORAD_CAT_ID   = 11672
ELEMENT_SET_NO = 999
REV_AT_EPOCH   = 47299
BSTAR          = .7350827E-4
MEAN_MOTION_DOT = .751E-5
MEAN_MOTION_DDOT = 0

CCSDS_OMM_VERS = 2.0
CREATION_DATE  = 
ORIGINATOR     = 

OBJECT_NAME    = SL-8 R/B
OBJECT_ID      = 1981-003B
CENTER_NAME    = EARTH
REF_FRAME      = TEME
TIME_SYSTEM    = UTC
MEAN_ELEMENT_THEORY = SGP/SGP4

EPOCH          = 2026-02-14T05:14:10.685472
MEAN_MOTION    = 15.10119545
ECCENTRICITY   = .02626461
INCLINATION    = 82.9400
RA_OF_ASC_NODE = 311.7113
ARG_OF_PERICENTER = 260.5035
MEAN_ANOMALY   = 96.6427

EPHEMERIS_TYPE = 0
CLASSIFICATION_TYPE = U
NORAD_CAT_ID   = 12139
ELEMENT_SET_NO = 999
REV_AT_EPOCH   = 31113
BSTAR          = .41722213E-3
MEAN_MOTION_DOT = .15795E-3
MEAN_MOTION_DDOT = 0

CCSDS_OMM_VERS = 2.0
CREATION_DATE  = 
ORIGINATOR     = 

OBJECT_NAME    = SL-3 R/B
OBJECT_ID      = 1981-046B
CENTER_NAME    = EARTH
REF_FRAME      = TEME
TIME_SYSTEM    = UTC
MEAN_ELEMENT_THEORY = SGP/SGP4

EPOCH          = 2026-02-14T05:21:57.312864
MEAN_MOTION    = 15.41335856
ECCENTRICITY   = .00208037
INCLINATION    = 81.2343
RA_OF_ASC_NODE = 317.9026
ARG_OF_PERICENTER = 99.5436
MEAN_ANOMALY   = 260.8158

EPHEMERIS_TYPE = 0
CLASSIFICATION_TYPE = U
NORAD_CAT_ID   = 12465
ELEMENT_SET_NO = 999
REV_AT_EPOCH   = 43481
BSTAR          = .34787039E-3
MEAN_MOTION_DOT = .14653E-3
MEAN_MOTION_DDOT = 0

CCSDS_OMM_VERS = 2.0
CREATION_DATE  = 
ORIGINATOR     = 

OBJECT_NAME    = SL-3 R/B
OBJECT_ID      = 1981-103B
CENTER_NAME    = EARTH
REF_FRAME      = TEME
TIME_SYSTEM    = UTC
MEAN_ELEMENT_THEORY = SGP/SGP4

EPOCH          = 2026-02-14T05:22:41.793312
MEAN_MOTION    = 15.21084192
ECCENTRICITY   = .0013413
INCLINATION    = 81.1557
RA_OF_ASC_NODE = 240.9574
ARG_OF_PERICENTER = 9.0887
MEAN_ANOMALY   = 351.0584

EPHEMERIS_TYPE = 0
CLASSIFICATION_TYPE = U
NORAD_CAT_ID   = 12904
ELEMENT_SET_NO = 999
REV_AT_EPOCH   = 96966
BSTAR          = .2705052E-3
MEAN_MOTION_DOT = .6051E-4
MEAN_MOTION_DDOT = 0

CCSDS_OMM_VERS = 2.0
CREATION_DATE  = 
ORIGINATOR     = 

OBJECT_NAME    = SL-3 R/B
OBJECT_ID      = 1982-013B
CENTER_NAME    = EARTH
REF_FRAME      = TEME
TIME_SYSTEM    = UTC
MEAN_ELEMENT_THEORY = SGP/SGP4

EPOCH          = 2026-02-14T05:48:47.680128
MEAN_MOTION    = 15.21751881
ECCENTRICITY   = .00217511
INCLINATION    = 81.1747
RA_OF_ASC_NODE = 188.2415
ARG_OF_PERICENTER = 258.5279
MEAN_ANOMALY   = 101.3510

EPHEMERIS_TYPE = 0
CLASSIFICATION_TYPE = U
NORAD_CAT_ID   = 13068
ELEMENT_SET_NO = 999
REV_AT_EPOCH   = 40078
BSTAR          = .21963273E-3
MEAN_MOTION_DOT = .5034E-4
MEAN_MOTION_DDOT = 0

CCSDS_OMM_VERS = 2.0
CREATION_DATE  = 
ORIGINATOR     = 

OBJECT_NAME    = SL-3 R/B
OBJECT_ID      = 1982-039B
CENTER_NAME    = EARTH
REF_FRAME      = TEME
TIME_SYSTEM    = UTC
MEAN_ELEMENT_THEORY = SGP/SGP4

EPOCH          = 2026-02-14T06:21:58.904640
MEAN_MOTION    = 15.09947171
ECCENTRICITY   = .00300593
INCLINATION    = 81.1600
RA_OF_ASC_NODE = 242.9635
ARG_OF_PERICENTER = 41.0482
MEAN_ANOMALY   = 319.2997

EPHEMERIS_TYPE = 0
CLASSIFICATION_TYPE = U
NORAD_CAT_ID   = 13154
ELEMENT_SET_NO = 999
REV_AT_EPOCH   = 37810
BSTAR          = .15716082E-3
MEAN_MOTION_DOT = .2599E-4
MEAN_MOTION_DDOT = 0

CCSDS_OMM_VERS = 2.0
CREATION_DATE  = 
ORIGINATOR     = 

OBJECT_NAME    = SL-3 R/B
OBJECT_ID      = 1982-079B
CENTER_NAME    = EARTH
REF_FRAME      = TEME
TIME_SYSTEM    = UTC
MEAN_ELEMENT_THEORY = SGP/SGP4

EPOCH          = 2026-02-14T05:40:29.349984
MEAN_MOTION    = 15.24440193
ECCENTRICITY   = .00241672
INCLINATION    = 81.1440
RA_OF_ASC_NODE = 220.7629
ARG_OF_PERICENTER = 244.9956
MEAN_ANOMALY   = 114.8767

EPHEMERIS_TYPE = 0
CLASSIFICATION_TYPE = U
NORAD_CAT_ID   = 13403
ELEMENT_SET_NO = 999
REV_AT_EPOCH   = 37412
BSTAR          = .26147958E-3
MEAN_MOTION_DOT = .6494E-4
MEAN_MOTION_DDOT = 0

CCSDS_OMM_VERS = 2.0
CREATION_DATE  = 
ORIGINATOR     = 

OBJECT_NAME    = SL-14 R/B
OBJECT_ID      = 1982-092B
CENTER_NAME    = EARTH
REF_FRAME      = TEME
TIME_SYSTEM    = UTC
MEAN_ELEMENT_THEORY = SGP/SGP4

EPOCH          = 2026-02-14T06:44:15.167904
MEAN_MOTION    = 14.86640884
ECCENTRICITY   = .00208843
INCLINATION    = 82.5708
RA_OF_ASC_NODE = 163.2880
ARG_OF_PERICENTER = 23.0680
MEAN_ANOMALY   = 358.9941

EPHEMERIS_TYPE = 0
CLASSIFICATION_TYPE = U
NORAD_CAT_ID   = 13553
ELEMENT_SET_NO = 999
REV_AT_EPOCH   = 32545
BSTAR          = .6594498E-4
MEAN_MOTION_DOT = .612E-5
MEAN_MOTION_DDOT = 0

CCSDS_OMM_VERS = 2.0
CREATION_DATE  = 
ORIGINATOR     = 

OBJECT_NAME    = SL-3 R/B
OBJECT_ID      = 1983-010B
CENTER_NAME    = EARTH
REF_FRAME      = TEME
TIME_SYSTEM    = UTC
MEAN_ELEMENT_THEORY = SGP/SGP4

EPOCH          = 2026-02-14T04:47:55.608288
MEAN_MOTION    = 15.45495219
ECCENTRICITY   = .00183598
INCLINATION    = 81.1024
RA_OF_ASC_NODE = 31.0261
ARG_OF_PERICENTER = 125.0757
MEAN_ANOMALY   = 235.2212

EPHEMERIS_TYPE = 0
CLASSIFICATION_TYPE = U
NORAD_CAT_ID   = 13819
ELEMENT_SET_NO = 999
REV_AT_EPOCH   = 35431
BSTAR          = .31241488E-3
MEAN_MOTION_DOT = .15112E-3
MEAN_MOTION_DDOT = 0

CCSDS_OMM_VERS = 2.0
CREATION_DATE  = 
ORIGINATOR     = 

OBJECT_NAME    = SL-3 R/B
OBJECT_ID      = 1983-075B
CENTER_NAME    = EARTH
REF_FRAME      = TEME
TIME_SYSTEM    = UTC
MEAN_ELEMENT_THEORY = SGP/SGP4

EPOCH          = 2026-02-14T04:50:00.242880
MEAN_MOTION    = 15.37809003
ECCENTRICITY   = .00204193
INCLINATION    = 97.6129
RA_OF_ASC_NODE = 48.9037
ARG_OF_PERICENTER = 318.1651
MEAN_ANOMALY   = 41.8031

EPHEMERIS_TYPE = 0
CLASSIFICATION_TYPE = U
NORAD_CAT_ID   = 14208
ELEMENT_SET_NO = 999
REV_AT_EPOCH   = 32654
BSTAR          = .32061046E-3
MEAN_MOTION_DOT = .1191E-3
MEAN_MOTION_DDOT = 0

CCSDS_OMM_VERS = 2.0
CREATION_DATE  = 
ORIGINATOR     = 

OBJECT_NAME    = COSMOS 1536
OBJECT_ID      = 1984-013A
CENTER_NAME    = EARTH
REF_FRAME      = TEME
TIME_SYSTEM    = UTC
MEAN_ELEMENT_THEORY = SGP/SGP4

EPOCH          = 2026-02-14T06:35:11.458752
MEAN_MOTION    = 15.23506876
ECCENTRICITY   = .00143563
INCLINATION    = 82.5469
RA_OF_ASC_NODE = 131.1165
ARG_OF_PERICENTER = 10.9990
MEAN_ANOMALY   = 349.1557

EPHEMERIS_TYPE = 0
CLASSIFICATION_TYPE = U
NORAD_CAT_ID   = 14699
ELEMENT_SET_NO = 999
REV_AT_EPOCH   = 26905
BSTAR          = .23313472E-3
MEAN_MOTION_DOT = .5611E-4
MEAN_MOTION_DDOT = 0

CCSDS_OMM_VERS = 2.0
CREATION_DATE  = 
ORIGINATOR     = 

OBJECT_NAME    = SL-14 R/B
OBJECT_ID      = 1984-027B
CENTER_NAME    = EARTH
REF_FRAME      = TEME
TIME_SYSTEM    = UTC
MEAN_ELEMENT_THEORY = SGP/SGP4

EPOCH          = 2026-02-14T02:59:47.798592
MEAN_MOTION    = 14.85952547
ECCENTRICITY   = .00192489
INCLINATION    = 82.5391
RA_OF_ASC_NODE = 267.1194
ARG_OF_PERICENTER = 54.4017
MEAN_ANOMALY   = 305.8989

EPHEMERIS_TYPE = 0
CLASSIFICATION_TYPE = U
NORAD_CAT_ID   = 14820
ELEMENT_SET_NO = 999
REV_AT_EPOCH   = 24413
BSTAR          = .46566988E-4
MEAN_MOTION_DOT = .432E-5
MEAN_MOTION_DDOT = 0

